NORAD_CAT_ID,OBJECT_NAME,OBJECT_TYPE,EPOCH,MEAN_MOTION,ECCENTRICITY,INCLINATION,RA_OF_ASC_NODE,ARG_OF_PERICENTER,MEAN_ANOMALY,BSTAR,MEAN_MOTION_DOT,MEAN_MOTION_DDOT,TLE_LINE0,TLE_LINE1,TLE_LINE2,SEMIMAJOR_AXIS,PERIOD,APOGEE,PERIGEE,DECAYED
51132.0,STARLINK-3393,PAYLOAD,2022-02-02 22:00:00,15.78214857,0.000113,53.2172,200.9022,71.689,85.8337,-0.0050938,-0.00811388,0.0,0 STARLINK-3393,1 51132U 22005AE  22033.91667824 -.00811388  00000-0 -50938-2 0  9992,2 51132  53.2172 200.9022 0001130  71.6890  85.8337 15.78214857  2807,6713.635,91.242,336.259,334.742,0.0
51132.0,STARLINK-3393,PAYLOAD,2022-02-03 06:00:00,15.77633513,0.0001179,53.2175,199.239,64.9259,187.1979,-0.0052808,-0.00818678,0.0,0 STARLINK-3393,1 51132U 22005AE  22034.25001157 -.00818678  00000-0 -52808-2 0  9998,2 51132  53.2175 199.2390 0001179  64.9259 187.1979 15.77633513  3717,6715.285,91.276,337.941,336.358,0.0
51132.0,STARLINK-3393,PAYLOAD,2022-02-03 14:00:01,15.77049731,0.0001151,53.2176,197.5799,54.9528,291.0673,-0.0054476,-0.00822313,0.0,0 STARLINK-3393,1 51132U 22005AE  22034.58334491 -.00822313  00000-0 -54476-2 0  9998,2 51132  53.2176 197.5799 0001151  54.9528 291.0673 15.77049731  2910,6716.941999999999,91.31,339.58,338.034,0.0
51132.0,STARLINK-3393,PAYLOAD,2022-02-03 22:00:01,15.76460989,0.0001103,53.2174,195.9229,60.2373,19.0419,-0.005552,-0.00816844,0.0,0 STARLINK-3393,1 51132U 22005AE  22034.91668981 -.00816844  00000-0 -55520-2 0  9992,2 51132  53.2174 195.9229 0001103  60.2373  19.0419 15.76460989  2976,6718.614000000001,91.344,341.22,339.73800000000006,0.0
51132.0,STARLINK-3393,PAYLOAD,2022-02-04 06:00:00,15.75874605,0.0001311,53.2174,194.264,53.7974,117.9068,-0.005689,-0.00815665,0.0,0 STARLINK-3393,1 51132U 22005AE  22035.25001157 -.00815665  00000-0 -56890-2 0  9997,2 51132  53.2174 194.2640 0001311  53.7974 117.9068 15.75874605  3860,6720.281,91.378,343.027,341.265,0.0
51132.0,STARLINK-3393,PAYLOAD,2022-02-04 14:00:01,15.75290692,0.0001431,53.2176,192.6096,46.6337,216.9201,-0.0058659,-0.00819297,0.0,0 STARLINK-3393,1 51132U 22005AE  22035.58335648 -.00819297  00000-0 -58659-2 0  9998,2 51132  53.2176 192.6096 0001431  46.6337 216.9201 15.75290692  3076,6721.941,91.412,344.76800000000014,342.844,0.0
51132.0,STARLINK-3393,PAYLOAD,2022-02-04 22:00:00,15.74706861,0.0001045,53.2172,190.957,62.3305,292.237,-0.0060368,-0.00821484,0.0,0 STARLINK-3393,1 51132U 22005AE  22035.91667824 -.00821484  00000-0 -60368-2 0  9990,2 51132  53.2172 190.9570 0001045  62.3305 292.2370 15.74706861  3131,6723.602,91.446,346.17,344.765,0.0
51132.0,STARLINK-3393,PAYLOAD,2022-02-05 06:00:00,15.74077797,0.0001457,53.2186,189.3046,37.0882,47.877,-0.0057221,-0.00763038,0.0,0 STARLINK-3393,1 51132U 22005AE  22036.25001157 -.00763038  00000-0 -57221-2 0  9993,2 51132  53.2186 189.3046 0001457  37.0882  47.8770 15.74077797  4028,6725.394,91.482,348.23900000000015,346.279,0.0
51132.0,STARLINK-3393,PAYLOAD,2022-02-05 14:00:01,15.73359683,0.0001609,53.2176,187.6521,38.7218,135.925,-0.0016882,-0.00232713,0.0,0 STARLINK-3393,1 51132U 22005AE  22036.58334491 -.00232713  00000-0 -16882-2 0  9998,2 51132  53.2176 187.6521 0001609  38.7218 135.9250 15.73359683  4079,6727.44,91.524,350.38699999999994,348.223,0.0
51132.0,STARLINK-3393,PAYLOAD,2022-02-05 20:00:01,15.7320158,0.0001315999999999,53.2176,186.416,53.2693,98.1602,3.8029e-05,4.72e-05,0.0,0 STARLINK-3393,1 51132U 22005AE  22036.83334491  .00004720  00000-0  38029-4 0  9998,2 51132  53.2176 186.4160 0001316  53.2693  98.1602 15.73201580  4117,6727.891,91.533,350.641,348.87,0.0
51132.0,STARLINK-3393,PAYLOAD,2022-02-06 19:45:11,15.73245268,0.0001651,53.2246,181.5334,59.708,300.4103,-6.4722e-05,-9.711e-05,0.0,0 STARLINK-3393,1 51132U 22005AE  22037.82304542 -.00009711  00000-0 -64722-4 0  9998,2 51132  53.2246 181.5334 0001651  59.7080 300.4103 15.73245268  3156,6727.766,91.531,350.742,348.52,0.0
51132.0,STARLINK-3393,PAYLOAD,2022-02-07 14:02:58,15.73188057,0.0002023,53.2216,177.762,102.0114,258.1133,4.944e-05,6.32e-05,0.0,0 STARLINK-3393,1 51132U 22005AE  22038.58539595  .00006320  00000-0  49440-4 0  9991,2 51132  53.2216 177.7620 0002023 102.0114 258.1133 15.73188057  4393,6727.929,91.534,351.155,348.43300000000005,0.0
51132.0,STARLINK-3393,PAYLOAD,2022-02-07 15:34:26,15.73205305,0.0001459,53.2211,177.4474,57.7202,302.3959,0.00021175,0.00029208,0.0,0 STARLINK-3393,1 51132U 22005AE  22038.64892213  .00029208  00000-0  21175-3 0  9991,2 51132  53.2211 177.4474 0001459  57.7202 302.3959 15.73205305  4404,6727.88,91.533,350.727,348.76300000000015,0.0
51132.0,STARLINK-3393,PAYLOAD,2022-02-08 19:01:06,15.73230799,0.0001869,53.2184,171.7876,39.413,320.7026,0.00023161,0.00032052,0.0,0 STARLINK-3393,1 51132U 22005AE  22039.79243666  .00032052  00000-0  23161-3 0  9998,2 51132  53.2184 171.7876 0001869  39.4130 320.7026 15.73230799  4581,6727.807,91.531,350.93,348.415,0.0
51132.0,STARLINK-3393,PAYLOAD,2022-02-09 11:47:21,15.732487699999998,0.0001516,53.2186,168.3309,42.9416,317.1722,7.7823e-05,0.00010338,0.0,0 STARLINK-3393,1 51132U 22005AE  22040.49122585  .00010338  00000-0  77823-4 0  9991,2 51132  53.2186 168.3309 0001516  42.9416 317.1722 15.73248770  4694,6727.755999999999,91.53,350.641,348.601,0.0
51132.0,STARLINK-3393,PAYLOAD,2022-02-09 14:50:19,15.732184099999998,0.0001906,53.2171,167.7024,36.149,323.9659,-7.9811e-05,-0.00011816,0.0,0 STARLINK-3393,1 51132U 22005AE  22040.61828103 -.00011816  00000-0 -79811-4 0  9997,2 51132  53.2171 167.7024 0001906  36.1490 323.9659 15.73218410  3595,6727.843000000003,91.532,350.99,348.425,0.0
51132.0,STARLINK-3393,PAYLOAD,2022-02-09 20:00:01,15.73224134,0.0002153,53.2172,166.6398,29.2239,109.6177,-0.00022639,-0.00032308,0.0,0 STARLINK-3393,1 51132U 22005AE  22040.83334491 -.00032308  00000-0 -22639-3 0  9997,2 51132  53.2172 166.6398 0002153  29.2239 109.6177 15.73224134  4749,6727.826,91.532,351.14,348.24300000000005,0.0
51132.0,STARLINK-3393,PAYLOAD,2022-02-10 06:00:00,15.73205531,0.0002132,53.2174,164.5569,40.615,299.1935,-1.5033e-05,-2.731e-05,0.0,0 STARLINK-3393,1 51132U 22005AE  22041.25001157 -.00002731  00000-0 -15033-4 0  9992,2 51132  53.2174 164.5569 0002132  40.6150 299.1935 15.73205531  4819,6727.879,91.533,351.17900000000014,348.31,0.0
51132.0,STARLINK-3393,PAYLOAD,2022-02-10 13:42:31,15.73219173,0.0002257,53.2179,162.988,35.3744,324.7425,8.878e-05,0.00011867,0.0,0 STARLINK-3393,1 51132U 22005AE  22041.57120124  .00011867  00000-0  88780-4 0  9990,2 51132  53.2179 162.9880 0002257  35.3744 324.7425 15.73219173  3747,6727.840999999999,91.532,351.224,348.18699999999984,0.0
51132.0,STARLINK-3393,PAYLOAD,2022-02-10 14:00:01,15.73266428,0.0002111,53.2171,162.9282,26.0651,42.925,-0.00056567,-0.00079496,0.0,0 STARLINK-3393,1 51132U 22005AE  22041.58335648 -.00079496  00000-0 -56567-3 0  9991,2 51132  53.2171 162.9282 0002111  26.0651  42.9250 15.73266428  4862,6727.706,91.529,350.991,348.151,0.0
51132.0,STARLINK-3393,PAYLOAD,2022-02-10 20:00:01,15.73197309,0.0002185,53.2167,161.6914,22.2922,23.4517,0.00044899,0.00062861,0.0,0 STARLINK-3393,1 51132U 22005AE  22041.83335648  .00062861  00000-0  44899-3 0  9990,2 51132  53.2167 161.6914 0002185  22.2922  23.4517 15.73197309  4901,6727.903,91.533,351.23800000000006,348.298,0.0
51132.0,STARLINK-3393,PAYLOAD,2022-02-10 22:00:00,15.73222328,0.0002144,53.2167,161.2786,22.4991,135.409,0.00018026,0.00024777,0.0,0 STARLINK-3393,1 51132U 22005AE  22041.91667824  .00024777  00000-0  18026-3 0  9990,2 51132  53.2167 161.2786 0002144  22.4991 135.4090 15.73222328  3715,6727.831999999999,91.532,351.139,348.254,0.0
51132.0,STARLINK-3393,PAYLOAD,2022-02-11 14:00:01,15.73273171,0.0002286,53.2173,157.9793,24.6642,311.2511,-0.00037356,-0.00052891,0.0,0 STARLINK-3393,1 51132U 22005AE  22042.58334491 -.00052891  00000-0 -37356-3 0  9992,2 51132  53.2173 157.9793 0002286  24.6642 311.2511 15.73273171  5026,6727.687,91.529,351.09,348.014,0.0
51132.0,STARLINK-3393,PAYLOAD,2022-02-11 14:06:09,15.73255168,0.0001761,53.2177,157.9569,35.3405,324.7731,0.00011581,0.00015701,0.0,0 STARLINK-3393,1 51132U 22005AE  22042.58761572  .00015701  00000-0  11581-3 0  9995,2 51132  53.2177 157.9569 0001761  35.3405 324.7731 15.73255168  3908,6727.738,91.53,350.788,348.418,0.0
51132.0,STARLINK-3393,PAYLOAD,2022-02-11 22:00:01,15.73244062,0.0002271,53.2172,156.3296,18.4043,46.5439,-0.00043771,-0.00061726,0.0,0 STARLINK-3393,1 51132U 22005AE  22042.91668981 -.00061726  00000-0 -43771-3 0  9998,2 51132  53.2172 156.3296 0002271  18.4043  46.5439 15.73244062  3736,6727.77,91.531,351.162,348.107,0.0
51132.0,STARLINK-3393,PAYLOAD,2022-02-12 06:00:00,15.73217693,0.0002206,53.2173,154.6787,26.2776,127.5247,-0.0010319,-0.00143133,0.0,0 STARLINK-3393,1 51132U 22005AE  22043.25001157 -.00143133  00000-0 -10319-2 0  9996,2 51132  53.2173 154.6787 0002206  26.2776 127.5247 15.73217693  5123,6727.845,91.532,351.194,348.226,0.0
51132.0,STARLINK-3393,PAYLOAD,2022-02-12 12:58:21,15.73192184,0.0002059,53.2183,153.2406,34.4724,325.6429,-0.00011483,-0.00016701,0.0,0 STARLINK-3393,1 51132U 22005AE  22043.54052861 -.00016701  00000-0 -11483-3 0  9990,2 51132  53.2183 153.2406 0002059  34.4724 325.6429 15.73192184  5172,6727.917,91.534,351.168,348.397,0.0
51132.0,STARLINK-3393,PAYLOAD,2022-02-12 22:00:00,15.73108075,0.0002613,53.217,151.3819,30.7981,300.7196,0.00021516,0.00029566,0.0,0 STARLINK-3393,1 51132U 22005AE  22043.91667824  .00029566  00000-0  21516-3 0  9991,2 51132  53.2170 151.3819 0002613  30.7981 300.7196 15.73108075  3747,6728.156999999997,91.539,351.78,348.264,0.0
51132.0,STARLINK-3393,PAYLOAD,2022-02-13 12:00:00,15.73209488,0.0002487,53.2177,148.4957,24.8311,12.1876,-0.00029929,-0.00042437,0.0,0 STARLINK-3393,1 51132U 22005AE  22044.50001157 -.00042437  00000-0 -29929-3 0  9998,2 51132  53.2177 148.4957 0002487  24.8311  12.1876 15.73209488  5329,6727.868,91.533,351.406,348.06,0.0
